{
    "links": {
        "self": "http://www.neowsapp.com/rest/v1/neo/3465952?api_key=iIulBulltgU6a56xZRHN4H3l9WmuAYTsLGpBGhQ2"
    },
    "id": "3465952",
    "neo_reference_id": "3465952",
    "name": "(2009 QJ6)",
    "designation": "2009 QJ6",
    "nasa_jpl_url": "http://ssd.jpl.nasa.gov/sbdb.cgi?sstr=3465952",
    "absolute_magnitude_h": 22.6,
    "estimated_diameter": {
        "kilometers": {
            "estimated_diameter_min": 0.0802703167,
            "estimated_diameter_max": 0.1794898848
        },
        "meters": {
            "estimated_diameter_min": 80.2703167283,
            "estimated_diameter_max": 179.4898847799
        },
        "miles": {
            "estimated_diameter_min": 0.049877647,
            "estimated_diameter_max": 0.1115298092
        },
        "feet": {
            "estimated_diameter_min": 263.3540659348,
            "estimated_diameter_max": 588.8775935812
        }
    },
    "is_potentially_hazardous_asteroid": false,
    "close_approach_data": [
        {
            "close_approach_date": "2009-08-23",
            "close_approach_date_full": "2009-Aug-23 15:14",
            "epoch_date_close_approach": 1251040440000,
            "relative_velocity": {
                "kilometers_per_second": "15.9591225603",
                "kilometers_per_hour": "57452.8412170094",
                "miles_per_hour": "35698.9612550912"
            },
            "miss_distance": {
                "astronomical": "0.0873714462",
                "lunar": "33.9874925718",
                "kilometers": "13070582.250339594",
                "miles": "8121683.2029066372"
            },
            "orbiting_body": "Earth"
        }
    ],
    "orbital_data": {
        "orbit_id": "10",
        "orbit_determination_date": "2017-04-06 09:00:12",
        "first_observation_date": "2009-08-19",
        "last_observation_date": "2009-08-30",
        "data_arc_in_days": 11,
        "observations_used": 31,
        "orbit_uncertainty": "9",
        "minimum_orbit_intersection": ".0561658",
        "jupiter_tisserand_invariant": "4.630",
        "epoch_osculation": "2455065.5",
        "eccentricity": ".2311374705649346",
        "semi_major_axis": "1.385401858594592",
        "inclination": "29.44409434393438",
        "ascending_node_longitude": "152.7367212938219",
        "orbital_period": "595.6101303345307",
        "perihelion_distance": "1.065183577283079",
        "perihelion_argument": "187.338196243698",
        "aphelion_distance": "1.705620139906106",
        "perihelion_time": "2455072.882589047336",
        "mean_anomaly": "355.5377991043433",
        "mean_motion": ".6044222246485335",
        "equinox": "J2000",
        "orbit_class": {
            "orbit_class_type": "AMO",
            "orbit_class_description": "Near-Earth asteroid orbits similar to that of 1221 Amor",
            "orbit_class_range": "1.017 AU < q (perihelion) < 1.3 AU"
        }
    },
    "is_sentry_object": false
}